[{"OBJECT_NAME":"ORBCOMM FM119","OBJECT_ID":"2015-081B","EPOCH":"2026-03-02T08:07:42.078144","MEAN_MOTION":14.58658434,"ECCENTRICITY":8.341e-5,"INCLINATION":47.0005,"RA_OF_ASC_NODE":56.4783,"ARG_OF_PERICENTER":214.6205,"MEAN_ANOMALY":145.4626,"EPHEMERIS_TYPE":0,"CLASSIFICATION_TYPE":"U","NORAD_CAT_ID":41180,"ELEMENT_SET_NO":999,"REV_AT_EPOCH":54340,"BSTAR":0.00021610892,"MEAN_MOTION_DOT":8.46e-6,"MEAN_MOTION_DDOT":0},{"OBJECT_NAME":"ORBCOMM FM105","OBJECT_ID":"2015-081C","EPOCH":"2026-03-02T08:17:55.285728","MEAN_MOTION":14.45486399,"ECCENTRICITY":0.00013433,"INCLINATION":47.0006,"RA_OF_ASC_NODE":86.6991,"ARG_OF_PERICENTER":3.6976,"MEAN_ANOMALY":356.3914,"EPHEMERIS_TYPE":0,"CLASSIFICATION_TYPE":"U","NORAD_CAT_ID":41181,"ELEMENT_SET_NO":999,"REV_AT_EPOCH":53809,"BSTAR":0.00012991872,"MEAN_MOTION_DOT":3.04e-6,"MEAN_MOTION_DDOT":0},{"OBJECT_NAME":"ORBCOMM FM110","OBJECT_ID":"2015-081D","EPOCH":"2026-03-02T14:28:08.400000","MEAN_MOTION":14.58717336,"ECCENTRICITY":0.0003561,"INCLINATION":47.0014,"RA_OF_ASC_NODE":145.3457,"ARG_OF_PERICENTER":291.4189,"MEAN_ANOMALY":68.6316,"EPHEMERIS_TYPE":0,"CLASSIFICATION_TYPE":"U","NORAD_CAT_ID":41182,"ELEMENT_SET_NO":999,"REV_AT_EPOCH":54206,"BSTAR":0.00028484,"MEAN_MOTION_DOT":1.171e-5,"MEAN_MOTION_DDOT":0},{"OBJECT_NAME":"ORBCOMM FM118","OBJECT_ID":"2015-081E","EPOCH":"2026-03-02T13:39:17.795808","MEAN_MOTION":14.58712981,"ECCENTRICITY":0.0003896,"INCLINATION":47.0035,"RA_OF_ASC_NODE":145.8195,"ARG_OF_PERICENTER":260.4519,"MEAN_ANOMALY":99.5926,"EPHEMERIS_TYPE":0,"CLASSIFICATION_TYPE":"U","NORAD_CAT_ID":41183,"ELEMENT_SET_NO":999,"REV_AT_EPOCH":54216,"BSTAR":0.00027147,"MEAN_MOTION_DOT":1.108e-5,"MEAN_MOTION_DDOT":0},{"OBJECT_NAME":"ORBCOMM FM112","OBJECT_ID":"2015-081F","EPOCH":"2026-03-02T03:51:46.782432","MEAN_MOTION":14.58714074,"ECCENTRICITY":0.00010497,"INCLINATION":46.9993,"RA_OF_ASC_NODE":56.2504,"ARG_OF_PERICENTER":41.3329,"MEAN_ANOMALY":318.7636,"EPHEMERIS_TYPE":0,"CLASSIFICATION_TYPE":"U","NORAD_CAT_ID":41184,"ELEMENT_SET_NO":999,"REV_AT_EPOCH":54332,"BSTAR":0.00022380279,"MEAN_MOTION_DOT":8.84e-6,"MEAN_MOTION_DDOT":0},{"OBJECT_NAME":"ORBCOMM FM113","OBJECT_ID":"2015-081G","EPOCH":"2026-03-02T08:14:51.775584","MEAN_MOTION":14.5871564,"ECCENTRICITY":6.288e-5,"INCLINATION":47.0008,"RA_OF_ASC_NODE":55.7537,"ARG_OF_PERICENTER":48.2924,"MEAN_ANOMALY":311.8016,"EPHEMERIS_TYPE":0,"CLASSIFICATION_TYPE":"U","NORAD_CAT_ID":41185,"ELEMENT_SET_NO":999,"REV_AT_EPOCH":54333,"BSTAR":0.00021764684,"MEAN_MOTION_DOT":8.55e-6,"MEAN_MOTION_DDOT":0},{"OBJECT_NAME":"ORBCOMM FM115","OBJECT_ID":"2015-081H","EPOCH":"2026-03-02T17:07:56.486208","MEAN_MOTION":14.63103256,"ECCENTRICITY":0.0001107,"INCLINATION":46.9973,"RA_OF_ASC_NODE":249.4527,"ARG_OF_PERICENTER":202.246,"MEAN_ANOMALY":157.838,"EPHEMERIS_TYPE":0,"CLASSIFICATION_TYPE":"U","NORAD_CAT_ID":41186,"ELEMENT_SET_NO":999,"REV_AT_EPOCH":54562,"BSTAR":0.00021554,"MEAN_MOTION_DOT":9.42e-6,"MEAN_MOTION_DDOT":0},{"OBJECT_NAME":"ORBCOMM FM108","OBJECT_ID":"2015-081J","EPOCH":"2026-03-02T10:38:21.657408","MEAN_MOTION":14.58727128,"ECCENTRICITY":0.00022413,"INCLINATION":47.006,"RA_OF_ASC_NODE":326.8223,"ARG_OF_PERICENTER":51.8393,"MEAN_ANOMALY":308.2694,"EPHEMERIS_TYPE":0,"CLASSIFICATION_TYPE":"U","NORAD_CAT_ID":41187,"ELEMENT_SET_NO":999,"REV_AT_EPOCH":54449,"BSTAR":0.00029871739,"MEAN_MOTION_DOT":1.237e-5,"MEAN_MOTION_DDOT":0},{"OBJECT_NAME":"ORBCOMM FM117","OBJECT_ID":"2015-081K","EPOCH":"2026-03-02T09:48:42.100704","MEAN_MOTION":14.58718967,"ECCENTRICITY":0.00025551,"INCLINATION":47.0023,"RA_OF_ASC_NODE":325.6543,"ARG_OF_PERICENTER":62.6974,"MEAN_ANOMALY":297.4172,"EPHEMERIS_TYPE":0,"CLASSIFICATION_TYPE":"U","NORAD_CAT_ID":41188,"ELEMENT_SET_NO":999,"REV_AT_EPOCH":54453,"BSTAR":0.00028488619,"MEAN_MOTION_DOT":1.172e-5,"MEAN_MOTION_DDOT":0},{"OBJECT_NAME":"ORBCOMM FM116","OBJECT_ID":"2015-081L","EPOCH":"2026-03-02T06:03:44.684064","MEAN_MOTION":14.58709031,"ECCENTRICITY":0.00027046,"INCLINATION":47.0025,"RA_OF_ASC_NODE":56.1736,"ARG_OF_PERICENTER":286.7373,"MEAN_ANOMALY":73.3216,"EPHEMERIS_TYPE":0,"CLASSIFICATION_TYPE":"U","NORAD_CAT_ID":41189,"ELEMENT_SET_NO":999,"REV_AT_EPOCH":54332,"BSTAR":0.00024889144,"MEAN_MOTION_DOT":1.002e-5,"MEAN_MOTION_DDOT":0}]
